YOTSUBA-KULOVER         
1 65941U 98067XN  26048.54861156  .00126617  00000+0  88498-3 0  9993
2 65941  51.6250 161.1458 0004934 320.8194  39.2447 15.73359880 20324
BOTAN                   
1 65942U 98067XP  26048.52453849  .00459962  92604-4  13674-2 0  9999
2 65942  51.6160 156.4110 0009065 340.4312  19.6345 15.91838464 20382
E-KAGAKU-1              
1 65943U 98067XQ  26048.55011848  .00125033  00000+0  87978-3 0  9994
2 65943  51.6276 161.1693 0004935 333.6914  26.3833 15.73209211 20326
HRC MONOBLOCK CAMERA    
1 66052U 98067XR  26048.53515564  .00042779  00000+0  52117-3 0  9990
2 66052  51.6290 167.0775 0002209  16.8491 343.2575 15.60063955 19244
HTV-X1                  
1 66174U 25241A   26048.57003830  .00008013  00000+0  15504-3 0  9993
2 66174  51.6323 171.8070 0011023 108.2943 251.9246 15.48664181   513
SZ-21 MODULE            
1 66515U 25246C   26048.17866810  .00037852  00000+0  34761-3 0  9997
2 66515  41.4766 329.4655 0001967 297.4736  62.5905 15.66957917 14859
SHENZHOU-22             
1 66645U 25272A   26048.23206423  .00029154  00000+0  35627-3 0  9993
2 66645  41.4683 332.5551 0004162 122.3722 237.7519 15.59770251267642
SOYUZ-MS 28             
1 66664U 25275A   26048.57003830  .00008013  00000+0  15504-3 0  9994
2 66664  51.6323 171.8070 0011023 108.2943 251.9246 15.48664181  1282
DUPLEX                  
1 66906U 98067XS  26048.54149848  .00033568  00000+0  49956-3 0  9990
2 66906  51.6299 170.1197 0001432  66.3998 293.7143 15.54812852 11998
ISS OBJECT XT           
1 66907U 98067XT  26048.54740387  .00101826  00000+0  10641-2 0  9997
2 66907  51.6272 167.9043 0002590 325.1808  34.9017 15.63657605 12029
ISS OBJECT XU           
1 66908U 98067XU  26048.35489515  .00129139  00000+0  13425-2 0  9990
2 66908  51.6262 168.8668 0002603 330.7094  29.3754 15.63675292 11999
SILVERSAT               
1 66909U 98067XV  26048.57639726  .00121901  00000+0  11824-2 0  9996
2 66909  51.6276 167.3464 0003330 324.3396  35.7377 15.65453016 12033
